start=new Date('2023-04-29T00:00:00.000Z').valueOf();
sats=[{"LAUNCH_DATE":"2022-04-21","OBJECT_NAME":"STARLINK-3739","FILE":"3895893","MEAN_MOTION_DOT":"-0.00001149","RA_OF_ASC_NODE":"124.7302","CENTER_NAME":"EARTH","ECCENTRICITY":"0.00013050","MEAN_MOTION_DDOT":"0.0000000000000","COUNTRY_CODE":"US","MEAN_ELEMENT_THEORY":"SGP4","RCS_SIZE":"LARGE","OBJECT_TYPE":"PAYLOAD","EPOCH":"2023-04-28T16:53:38.424480","NORAD_CAT_ID":"52266","PERIOD":"95.438","EPHEMERIS_TYPE":"0","ELEMENT_SET_NO":"999","REV_AT_EPOCH":"5768","SEMIMAJOR_AXIS":"6917.894","MEAN_MOTION":"15.08835675","CLASSIFICATION_TYPE":"U","TLE_LINE2":"2 52266  53.2156 124.7302 0001305  84.4691 275.6450 15.08835675 57688","PERIAPSIS":"538.856","REF_FRAME":"TEME","INCLINATION":"53.2156","ARG_OF_PERICENTER":"84.4691","TLE_LINE1":"1 52266U 22041F   23118.70391695 -.00001149  00000-0 -54137-4 0  9996","OBJECT_ID":"2022-041F","SITE":"AFETR","BSTAR":"-0.00005413700000","DECAY_DATE":null,"APOAPSIS":"540.661","TIME_SYSTEM":"UTC","MEAN_ANOMALY":"275.6450","GP_ID":"230892569"},{"COUNTRY_CODE":"US","ECCENTRICITY":"0.00010980","MEAN_MOTION_DDOT":"0.0000000000000","MEAN_MOTION_DOT":"0.00000019","FILE":"3895770","RA_OF_ASC_NODE":"126.5291","CENTER_NAME":"EARTH","LAUNCH_DATE":"2022-04-21","OBJECT_NAME":"STARLINK-3748","EPHEMERIS_TYPE":"0","ELEMENT_SET_NO":"999","REV_AT_EPOCH":"5639","PERIOD":"95.438","OBJECT_TYPE":"PAYLOAD","EPOCH":"2023-04-28T07:16:02.743392","NORAD_CAT_ID":"52267","MEAN_ELEMENT_THEORY":"SGP4","RCS_SIZE":"LARGE","SITE":"AFETR","ARG_OF_PERICENTER":"100.2662","TLE_LINE1":"1 52267U 22041G   23118.30280953  .00000019  00000-0  19289-4 0  9999","OBJECT_ID":"2022-041G","CLASSIFICATION_TYPE":"U","REF_FRAME":"TEME","TLE_LINE2":"2 52267  53.2164 126.5291 0001098 100.2662 259.8454 15.08830758 56391","PERIAPSIS":"539.014","INCLINATION":"53.2164","SEMIMAJOR_AXIS":"6917.909","MEAN_MOTION":"15.08830758","GP_ID":"230885915","MEAN_ANOMALY":"259.8454","DECAY_DATE":null,"APOAPSIS":"540.533","TIME_SYSTEM":"UTC","BSTAR":"0.00001928900000"},{"COUNTRY_CODE":"US","ECCENTRICITY":"0.00012350","MEAN_MOTION_DDOT":"0.0000000000000","FILE":"3895770","MEAN_MOTION_DOT":"0.00001067","RA_OF_ASC_NODE":"126.5848","CENTER_NAME":"EARTH","LAUNCH_DATE":"2022-04-21","OBJECT_NAME":"STARLINK-3746","EPHEMERIS_TYPE":"0","ELEMENT_SET_NO":"999","REV_AT_EPOCH":"5639","PERIOD":"95.437","OBJECT_TYPE":"PAYLOAD","EPOCH":"2023-04-28T07:01:30.372960","NORAD_CAT_ID":"52268","MEAN_ELEMENT_THEORY":"SGP4","RCS_SIZE":"LARGE","SITE":"AFETR","ARG_OF_PERICENTER":"93.8194","TLE_LINE1":"1 52268U 22041H   23118.29271265  .00001067  00000-0  85087-4 0  9997","OBJECT_ID":"2022-041H","CLASSIFICATION_TYPE":"U","PERIAPSIS":"538.881","TLE_LINE2":"2 52268  53.2157 126.5848 0001235  93.8194 266.2940 15.08843123 56394","REF_FRAME":"TEME","INCLINATION":"53.2157","SEMIMAJOR_AXIS":"6917.871","MEAN_MOTION":"15.08843123","GP_ID":"230887165","MEAN_ANOMALY":"266.2940","DECAY_DATE":null,"APOAPSIS":"540.590","TIME_SYSTEM":"UTC","BSTAR":"0.00008508700000"},{"MEAN_ELEMENT_THEORY":"SGP4","RCS_SIZE":"LARGE","EPOCH":"2023-04-28T11:56:52.565568","OBJECT_TYPE":"PAYLOAD","NORAD_CAT_ID":"52269","PERIOD":"95.436","EPHEMERIS_TYPE":"0","REV_AT_EPOCH":"5642","ELEMENT_SET_NO":"999","OBJECT_NAME":"STARLINK-3791","LAUNCH_DATE":"2022-04-21","MEAN_MOTION_DOT":"0.00007336","FILE":"3895770","CENTER_NAME":"EARTH","RA_OF_ASC_NODE":"125.6527","ECCENTRICITY":"0.00010860","MEAN_MOTION_DDOT":"0.0000000000000","COUNTRY_CODE":"US","BSTAR":"0.00047828000000","DECAY_DATE":null,"APOAPSIS":"540.438","TIME_SYSTEM":"UTC","MEAN_ANOMALY":"269.2783","GP_ID":"230886917","SEMIMAJOR_AXIS":"6917.822","MEAN_MOTION":"15.08859049","CLASSIFICATION_TYPE":"U","INCLINATION":"53.2160","REF_FRAME":"TEME","TLE_LINE2":"2 52269  53.2160 125.6527 0001086  90.8333 269.2783 15.08859049 56425","PERIAPSIS":"538.936","TLE_LINE1":"1 52269U 22041J   23118.49783062  .00007336  00000-0  47828-3 0  9998","ARG_OF_PERICENTER":"90.8333","OBJECT_ID":"2022-041J","SITE":"AFETR"},{"BSTAR":"0.00006087600000","APOAPSIS":"540.551","DECAY_DATE":null,"TIME_SYSTEM":"UTC","MEAN_ANOMALY":"270.8582","GP_ID":"230892861","SEMIMAJOR_AXIS":"6917.876","MEAN_MOTION":"15.08841292","CLASSIFICATION_TYPE":"U","REF_FRAME":"TEME","TLE_LINE2":"2 52270  53.2151 124.5288 0001170  89.2544 270.8582 15.08841292 57673","PERIAPSIS":"538.932","INCLINATION":"53.2151","TLE_LINE1":"1 52270U 22041K   23118.75543803  .00000681  00000-0  60876-4 0  9991","ARG_OF_PERICENTER":"89.2544","OBJECT_ID":"2022-041K","SITE":"AFETR","MEAN_ELEMENT_THEORY":"SGP4","RCS_SIZE":"LARGE","OBJECT_TYPE":"PAYLOAD","EPOCH":"2023-04-28T18:07:49.845792","NORAD_CAT_ID":"52270","PERIOD":"95.437","EPHEMERIS_TYPE":"0","ELEMENT_SET_NO":"999","REV_AT_EPOCH":"5767","LAUNCH_DATE":"2022-04-21","OBJECT_NAME":"STARLINK-3804","MEAN_MOTION_DOT":"0.00000681","FILE":"3895893","RA_OF_ASC_NODE":"124.5288","CENTER_NAME":"EARTH","ECCENTRICITY":"0.00011700","MEAN_MOTION_DDOT":"0.0000000000000","COUNTRY_CODE":"US"},{"GP_ID":"230886415","MEAN_ANOMALY":"268.2628","TIME_SYSTEM":"UTC","DECAY_DATE":null,"APOAPSIS":"540.802","BSTAR":"0.00007977700000","SITE":"AFETR","OBJECT_ID":"2022-041L","TLE_LINE1":"1 52271U 22041L   23118.29543395  .00000982  00000-0  79777-4 0  9991","ARG_OF_PERICENTER":"91.8541","INCLINATION":"53.2165","PERIAPSIS":"538.676","TLE_LINE2":"2 52271  53.2165 126.5604 0001537  91.8541 268.2628 15.08842026 56392","REF_FRAME":"TEME","CLASSIFICATION_TYPE":"U","MEAN_MOTION":"15.08842026","SEMIMAJOR_AXIS":"6917.874","REV_AT_EPOCH":"5639","ELEMENT_SET_NO":"999","EPHEMERIS_TYPE":"0","PERIOD":"95.437","NORAD_CAT_ID":"52271","EPOCH":"2023-04-28T07:05:25.493280","OBJECT_TYPE":"PAYLOAD","RCS_SIZE":"LARGE","MEAN_ELEMENT_THEORY":"SGP4","COUNTRY_CODE":"US","MEAN_MOTION_DDOT":"0.0000000000000","ECCENTRICITY":"0.00015370","CENTER_NAME":"EARTH","RA_OF_ASC_NODE":"126.5604","MEAN_MOTION_DOT":"0.00000982","FILE":"3895770","OBJECT_NAME":"STARLINK-3788","LAUNCH_DATE":"2022-04-21"},{"TIME_SYSTEM":"UTC","APOAPSIS":"540.564","DECAY_DATE":null,"BSTAR":"0.00008480000000","GP_ID":"230886667","MEAN_ANOMALY":"259.5666","REF_FRAME":"TEME","TLE_LINE2":"2 52272  53.2162 126.6008 0001177 100.5459 259.5666 15.08838690 56392","PERIAPSIS":"538.935","INCLINATION":"53.2162","CLASSIFICATION_TYPE":"U","MEAN_MOTION":"15.08838690","SEMIMAJOR_AXIS":"6917.884","SITE":"AFETR","OBJECT_ID":"2022-041M","TLE_LINE1":"1 52272U 22041M   23118.28439679  .00001062  00000-0  84800-4 0  9993","ARG_OF_PERICENTER":"100.5459","NORAD_CAT_ID":"52272","OBJECT_TYPE":"PAYLOAD","EPOCH":"2023-04-28T06:49:31.882656","RCS_SIZE":"LARGE","MEAN_ELEMENT_THEORY":"SGP4","ELEMENT_SET_NO":"999","REV_AT_EPOCH":"5639","EPHEMERIS_TYPE":"0","PERIOD":"95.438","RA_OF_ASC_NODE":"126.6008","CENTER_NAME":"EARTH","FILE":"3895770","MEAN_MOTION_DOT":"0.00001062","LAUNCH_DATE":"2022-04-21","OBJECT_NAME":"STARLINK-3781","COUNTRY_CODE":"US","MEAN_MOTION_DDOT":"0.0000000000000","ECCENTRICITY":"0.00011770"},{"MEAN_ELEMENT_THEORY":"SGP4","RCS_SIZE":"LARGE","OBJECT_TYPE":"PAYLOAD","EPOCH":"2023-04-28T06:08:23.823456","NORAD_CAT_ID":"52273","PERIOD":"95.437","EPHEMERIS_TYPE":"0","ELEMENT_SET_NO":"999","REV_AT_EPOCH":"5653","LAUNCH_DATE":"2022-04-21","OBJECT_NAME":"STARLINK-3782","MEAN_MOTION_DOT":"0.00002281","FILE":"3895770","RA_OF_ASC_NODE":"116.3856","CENTER_NAME":"EARTH","ECCENTRICITY":"0.00012810","MEAN_MOTION_DDOT":"0.0000000000000","COUNTRY_CODE":"US","BSTAR":"0.00016135000000","APOAPSIS":"540.608","DECAY_DATE":null,"TIME_SYSTEM":"UTC","MEAN_ANOMALY":"285.9584","GP_ID":"230887416","SEMIMAJOR_AXIS":"6917.856","MEAN_MOTION":"15.08847830","CLASSIFICATION_TYPE":"U","REF_FRAME":"TEME","TLE_LINE2":"2 52273  53.2160 116.3856 0001281  74.1549 285.9584 15.08847830 56534","PERIAPSIS":"538.835","INCLINATION":"53.2160","ARG_OF_PERICENTER":"74.1549","TLE_LINE1":"1 52273U 22041N   23118.25583129  .00002281  00000-0  16135-3 0  9990","OBJECT_ID":"2022-041N","SITE":"AFETR"},{"ECCENTRICITY":"0.00013860","MEAN_MOTION_DDOT":"0.0000000000000","COUNTRY_CODE":"US","LAUNCH_DATE":"2022-04-21","OBJECT_NAME":"STARLINK-3790","MEAN_MOTION_DOT":"0.00005080","FILE":"3895770","RA_OF_ASC_NODE":"126.3331","CENTER_NAME":"EARTH","PERIOD":"95.437","EPHEMERIS_TYPE":"0","ELEMENT_SET_NO":"999","REV_AT_EPOCH":"5640","MEAN_ELEMENT_THEORY":"SGP4","RCS_SIZE":"LARGE","OBJECT_TYPE":"PAYLOAD","EPOCH":"2023-04-28T08:19:37.683552","NORAD_CAT_ID":"52274","TLE_LINE1":"1 52274U 22041P   23118.34696393  .00005080  00000-0  33695-3 0  9999","ARG_OF_PERICENTER":"67.8104","OBJECT_ID":"2022-041P","SITE":"AFETR","SEMIMAJOR_AXIS":"6917.848","MEAN_MOTION":"15.08850520","CLASSIFICATION_TYPE":"U","TLE_LINE2":"2 52274  53.2148 126.3331 0001386  67.8104 292.3036 15.08850520 56402","REF_FRAME":"TEME","PERIAPSIS":"538.754","INCLINATION":"53.2148","MEAN_ANOMALY":"292.3036","GP_ID":"230885666","BSTAR":"0.00033695000000","DECAY_DATE":null,"APOAPSIS":"540.672","TIME_SYSTEM":"UTC"},{"EPHEMERIS_TYPE":"0","ELEMENT_SET_NO":"999","REV_AT_EPOCH":"5642","PERIOD":"95.436","OBJECT_TYPE":"PAYLOAD","EPOCH":"2023-04-28T11:40:59.761056","NORAD_CAT_ID":"52275","MEAN_ELEMENT_THEORY":"SGP4","RCS_SIZE":"LARGE","COUNTRY_CODE":"US","ECCENTRICITY":"0.00012450","MEAN_MOTION_DDOT":"0.0000000000000","FILE":"3895770","MEAN_MOTION_DOT":"0.00008493","RA_OF_ASC_NODE":"125.7046","CENTER_NAME":"EARTH","LAUNCH_DATE":"2022-04-21","OBJECT_NAME":"STARLINK-3784","GP_ID":"230885916","MEAN_ANOMALY":"288.3839","DECAY_DATE":null,"APOAPSIS":"540.551","TIME_SYSTEM":"UTC","BSTAR":"0.00055081000000","SITE":"AFETR","ARG_OF_PERICENTER":"71.7289","TLE_LINE1":"1 52275U 22041Q   23118.48680279  .00008493  00000-0  55081-3 0  9995","OBJECT_ID":"2022-041Q","CLASSIFICATION_TYPE":"U","REF_FRAME":"TEME","TLE_LINE2":"2 52275  53.2143 125.7046 0001245  71.7289 288.3839 15.08858263 56426","PERIAPSIS":"538.828","INCLINATION":"53.2143","SEMIMAJOR_AXIS":"6917.825","MEAN_MOTION":"15.08858263"}];
